[{"OBJECT_NAME":"LEMUR-2-SQUIRRELCOMM","OBJECT_ID":"2024-149DQ","EPOCH":"2026-03-09T21:26:31.466400","MEAN_MOTION":15.05887962,"ECCENTRICITY":0.00061012,"INCLINATION":97.6754,"RA_OF_ASC_NODE":150.1976,"ARG_OF_PERICENTER":42.3481,"MEAN_ANOMALY":317.8216,"EPHEMERIS_TYPE":0,"CLASSIFICATION_TYPE":"U","NORAD_CAT_ID":60578,"ELEMENT_SET_NO":999,"REV_AT_EPOCH":8545,"BSTAR":0.00060830109,"MEAN_MOTION_DOT":8.786e-5,"MEAN_MOTION_DDOT":0},{"OBJECT_NAME":"STARLINK-34717","OBJECT_ID":"2025-165E","EPOCH":"2026-03-09T18:13:22.141056","MEAN_MOTION":15.05644459,"ECCENTRICITY":1.753e-5,"INCLINATION":97.603,"RA_OF_ASC_NODE":147.34,"ARG_OF_PERICENTER":167.0938,"MEAN_ANOMALY":193.0294,"EPHEMERIS_TYPE":0,"CLASSIFICATION_TYPE":"U","NORAD_CAT_ID":65060,"ELEMENT_SET_NO":999,"REV_AT_EPOCH":3480,"BSTAR":3.4347006e-5,"MEAN_MOTION_DOT":4.35e-6,"MEAN_MOTION_DDOT":0}]
